{"spkid": "54051396", "covariance": {"labels": ["e", "q", "tp", "node", "peri", "i"], "elements": [{"title": "eccentricity", "value": ".6503329863046172", "units": null, "name": "e", "sigma": 7.90869795999443e-08, "label": "e"}, {"name": "q", "sigma": 1.57981667059787e-07, "title": "perihelion distance", "value": ".753162142098296", "units": "au", "label": "q"}, {"label": "tp", "name": "tp", "sigma": 2.96357890520961e-05, "title": "time of perihelion passage", "value": "2459028.743619845751", "units": "TDB"}, {"name": "om", "sigma": 3.21338042587292e-05, "value": "173.010804622409", "title": "longitude of the ascending node", "units": "deg", "label": "node"}, {"label": "peri", "title": "argument of perihelion", "value": "86.16897234196782", "units": "deg", "name": "w", "sigma": 3.65978057532386e-05}, {"label": "i", "sigma": 2.93635831922078e-05, "name": "i", "units": "deg", "title": "inclination", "value": "8.108495800294603"}], "data": [["6.254750342242007E-15", "-1.247464050861142E-14", "3.680774938876595E-13", "-3.284474575509698E-13", "-6.885665385863555E-13", "-1.237786917132581E-13"], ["-1.247464050861142E-14", "2.495820712698943E-14", "-5.024973105995855E-13", "6.104769243630534E-13", "1.506122093135746E-12", "1.209280538584261E-13"], ["3.680774938876595E-13", "-5.024973105995855E-13", "8.782799927403418E-10", "-1.786358626430225E-10", "4.623397506226936E-10", "-4.582516985998983E-10"], ["-3.284474575509698E-13", "6.104769243630534E-13", "-1.786358626430225E-10", "1.032581376138323E-9", "-1.026085245657151E-9", "-4.850455303007627E-10"], ["-6.885665385863555E-13", "1.506122093135746E-12", "4.623397506226936E-10", "-1.026085245657151E-9", "1.339399385951784E-9", "3.288321641094283E-10"], ["-1.237786917132581E-13", "1.209280538584261E-13", "-4.582516985998983E-10", "-4.850455303007627E-10", "3.288321641094283E-10", "8.622200178857067E-10"]], "epoch": "2458699.5"}, "elements": [{"label": "e", "name": "e", "sigma": "7.4759E-8", "units": null, "value": ".6481559518948093", "title": "eccentricity"}, {"label": "a", "sigma": "4.8904E-8", "name": "a", "units": "au", "value": "2.157168980345765", "title": "semi-major axis"}, {"name": "q", "sigma": "1.4666E-7", "title": "perihelion distance", "value": ".7589870664918006", "units": "au", "label": "q"}, {"label": "i", "units": "deg", "title": "inclination; angle with respect to x-y ecliptic plane", "value": "8.100429151032854", "name": "i", "sigma": "2.9357E-5"}, {"units": "deg", "title": "longitude of the ascending node", "value": "171.7844831711231", "sigma": "3.161E-5", "name": "om", "label": "node"}, {"label": "peri", "units": "deg", "value": "87.63041536662449", "title": "argument of perihelion", "name": "w", "sigma": "3.6381E-5"}, {"label": "M", "name": "ma", "sigma": "2.7761E-5", "units": "deg", "title": "mean anomaly", "value": "315.8190046146341"}, {"sigma": "9.3772E-5", "name": "tp", "units": "TDB", "value": "2461342.522669714526", "title": "time of perihelion passage", "label": "tp"}, {"title": "sidereal orbital period", "value": "1157.24330453099", "units": "d", "name": "per", "sigma": "3.9353E-5", "label": "period"}, {"name": "n", "sigma": "1.0579E-8", "value": ".3110841070244097", "title": "mean motion", "units": "deg/d", "label": "n"}, {"label": "Q", "name": "ad", "sigma": "8.0602E-8", "units": "au", "value": "3.55535089419973", "title": "aphelion distance"}], "epoch": "2461200.5"}